{"type":"FeatureCollection","name":"nuts2-es-2024","metadata":{"source":"Eurostat GISCO NUTS 2024, 1:10M, EPSG:4326, level 2","sourceUrl":"https://gisco-services.ec.europa.eu/distribution/v2/nuts/geojson/NUTS_RG_10M_2024_4326_LEVL_2.geojson","attribution":"© EuroGeographics for the administrative boundaries","retrievedAt":"2026-07-13","note":"Extraction limited to CNTR_CODE=ES; properties reduced; generalised boundaries for statistical visualisation, not legal delimitation."},"features":[{"type":"Feature","id":"ES11","properties":{"NUTS_ID":"ES11","NAME_LATN":"Galicia","CNTR_CODE":"ES"},"geometry":{"type":"MultiPolygon","coordinates":[[[[-7.718005822999942,43.75569170000006],[-7.699736359999974,43.735114829000054],[-7.642148677999955,43.73580180100004],[-7.598424343999966,43.696447154000055],[-7.481430535999948,43.71858089400007],[-7.249594607999938,43.57727184400005],[-7.110048036999956,43.55625221500003],[-7.031836889999965,43.54447142200007],[-7.058321626999941,43.47498410800006],[-7.172637131999977,43.40219753400004],[-6.958561017999955,43.149304047000044],[-6.870566007999969,43.17813122300004],[-6.838756177999926,43.15692320800008],[-6.837816073999932,43.12163736000008],[-6.940431064999927,43.07501742100004],[-6.98410217199995,43.01819319500004],[-6.839186120999955,42.96004019800006],[-6.824167129999978,42.91501247000008],[-6.877391830999954,42.78978878000004],[-7.005839474999959,42.712972007000076],[-7.03210805599997,42.69726235700006],[-7.05514760799997,42.56666268200007],[-7.077069196999958,42.508000681000055],[-6.855104454999946,42.477545821000035],[-6.811320733999935,42.39233360600008],[-6.748696609999968,42.34287123300004],[-6.784307801999944,42.25360863700007],[-6.925517009999965,42.175557611000045],[-6.998265633999949,42.09771584500004],[-6.985800483999981,41.971447057000034],[-7.05514760799997,41.949272421000046],[-7.165328770999963,41.978804566000065],[-7.20046440599998,41.87974942100004],[-7.417802180999956,41.818207861000076],[-7.468686659999946,41.86283037800007],[-7.598640471999943,41.83470278200008],[-7.615163001999974,41.87339913500006],[-7.706939501999955,41.90290786000003],[-7.879368687999943,41.86037108100004],[-7.898409102999949,41.91932322200006],[-8.051862724999978,41.82061392600008],[-8.165075344999934,41.81830214400003],[-8.19851084499993,41.92156952400006],[-8.146256359999938,41.98872188100006],[-8.101729957999964,42.04594286100007],[-8.17453179599994,42.08128355200006],[-8.19900032399994,42.15441906400008],[-8.338551375999941,42.090057942000044],[-8.394801076999954,42.08128355200006],[-8.625314793999962,42.045325723000076],[-8.703027321999969,41.98872188100006],[-8.863185838999925,41.87206646300007],[-8.877771589999952,41.98872188100006],[-8.878904520999981,42.084338323000054],[-8.742405047999966,42.24585244900004],[-8.827875081999935,42.28813225000005],[-8.750958466999975,42.39233360600008],[-8.842413762999968,42.41257179000007],[-8.878693382999927,42.45585214500005],[-8.72674928999993,42.68825152200003],[-8.91336671099998,42.62040988500007],[-9.034820708999973,42.54208724600005],[-9.057239294999931,42.624862859000075],[-9.012692340999934,42.69726235700006],[-9.003026292999948,42.712972007000076],[-8.96428538799995,42.775935280000056],[-9.102667897999936,42.76795705600006],[-9.154315856999972,42.90393565000005],[-9.275276384999927,42.93578721500006],[-9.267568057999938,43.033088246000034],[-9.181558678999977,43.115645157000074],[-9.180765367999982,43.169042827000055],[-8.980084572999942,43.23147882000006],[-8.952914530999976,43.286939268000026],[-8.854319373999942,43.323133065000036],[-8.704601475999937,43.29566675500007],[-8.550961963999953,43.31785380100007],[-8.428167549999955,43.37513251400003],[-8.369693136999956,43.35547821500006],[-8.309285344999978,43.39026929100004],[-8.23497875299995,43.35983386700008],[-8.223543991999975,43.40634625700005],[-8.310529053999971,43.467836764000026],[-8.280443141999967,43.54656705300005],[-8.263661127999967,43.55625221500003],[-7.981004159999941,43.71937795300005],[-7.924564344999965,43.75195025000005],[-7.840663810999956,43.724179725000056],[-7.718005822999942,43.75569170000006]]]]}},{"type":"Feature","id":"ES12","properties":{"NUTS_ID":"ES12","NAME_LATN":"Principado de Asturias","CNTR_CODE":"ES"},"geometry":{"type":"MultiPolygon","coordinates":[[[[-4.512301089999937,43.39320382100004],[-4.528868005999925,43.28891375500007],[-4.708373090999942,43.26300562100005],[-4.741106369999954,43.194491252000034],[-4.841023183999937,43.18078011600005],[-4.913933876999977,43.23110055400008],[-5.070252619999962,43.17283049300005],[-5.11427828199993,43.109002462000035],[-5.370526984999969,43.08249762500003],[-5.519175693999955,43.02088515600008],[-5.696925388999944,43.05085532700008],[-5.801570710999954,42.968657706000045],[-5.93364523799994,43.00958847600003],[-5.985083276999944,43.06018312200007],[-6.071181596999963,43.06819218700008],[-6.119926889999931,43.028978496000036],[-6.195255798999938,43.04509856100003],[-6.236611736999976,43.018292203000044],[-6.363390220999975,43.05132316000004],[-6.461727321999945,42.976619139000036],[-6.43689166799993,42.96004019800006],[-6.534989483999937,42.918331128000034],[-6.694395870999927,42.91790495300006],[-6.759985006999955,42.89074668500007],[-6.824167129999978,42.91501247000008],[-6.839186120999955,42.96004019800006],[-6.98410217199995,43.01819319500004],[-6.940431064999927,43.07501742100004],[-6.837816073999932,43.12163736000008],[-6.838756177999926,43.15692320800008],[-6.870566007999969,43.17813122300004],[-6.958561017999955,43.149304047000044],[-7.172637131999977,43.40219753400004],[-7.058321626999941,43.47498410800006],[-7.031836889999965,43.54447142200007],[-6.993998567999938,43.55625221500003],[-6.947122911999941,43.57084674200007],[-6.770728303999931,43.567213681000055],[-6.482521257999963,43.55625221500003],[-6.372348125999963,43.55206196700004],[-6.355968516999951,43.55625221500003],[-6.239518705999956,43.58604252600003],[-6.111666887999945,43.55838847700005],[-5.951288228999942,43.58591237700006],[-5.843052093999972,43.64762822300003],[-5.690072477999934,43.55625221500003],[-5.404981253999949,43.54927900200005],[-5.187651805999963,43.47575886000004],[-4.512301089999937,43.39320382100004]]]]}},{"type":"Feature","id":"ES13","properties":{"NUTS_ID":"ES13","NAME_LATN":"Cantabria","CNTR_CODE":"ES"},"geometry":{"type":"MultiPolygon","coordinates":[[[[-3.444650576999948,43.46080696000007],[-3.415567924999948,43.41779960800005],[-3.252389361999974,43.39944557200005],[-3.153338109999936,43.35322211300007],[-3.184346253999934,43.29314113200007],[-3.322909134999975,43.29522934700003],[-3.43519828899997,43.23642384100003],[-3.417607936999957,43.13331597700005],[-3.568812538999964,43.155885915000056],[-3.630603765999979,43.165109339000026],[-3.684224202999928,43.14776339500003],[-3.963924348999967,42.96645563800007],[-3.952205053999933,42.921047110000075],[-3.857793855999944,42.92965066900007],[-3.87030950999997,42.89163861900005],[-3.832815068999935,42.82768056800006],[-3.923286036999968,42.77290756100007],[-3.999670106999929,42.76893244900003],[-3.998888858999976,42.79938128400005],[-4.011591463999935,42.81062921300003],[-4.044070620999946,42.78198714700005],[-4.046112058999938,42.76680041100008],[-4.081458444999953,42.76162308600004],[-4.169069341999943,42.807551008000075],[-4.143831251999927,42.862164550000045],[-4.219553774999952,42.86248567800004],[-4.251913305999949,42.96004019800006],[-4.338763277999931,42.97446596300006],[-4.449829701999931,43.05319158300006],[-4.737845317999927,43.02094402500006],[-4.754633422999973,43.06280551200007],[-4.83843074899994,43.11418035600008],[-4.841023183999937,43.18078011600005],[-4.741106369999954,43.194491252000034],[-4.708373090999942,43.26300562100005],[-4.528868005999925,43.28891375500007],[-4.512301089999937,43.39320382100004],[-4.176231599999937,43.40475175700004],[-3.832545681999932,43.48313811600008],[-3.801377026999944,43.47319071000004],[-3.793772409999974,43.43172271900005],[-3.568812538999964,43.50697269400007],[-3.444650576999948,43.46080696000007]],[[-4.120530523999946,42.81152037000004],[-4.067033115999948,42.78616077700008],[-4.034659760999944,42.81227352800005],[-4.071423618999972,42.83310976100006],[-4.120530523999946,42.81152037000004]]],[[[-3.252254322999931,43.26020658500005],[-3.277084159999959,43.19833299100003],[-3.294683548999956,43.20628529100003],[-3.307633557999964,43.26145747900006],[-3.252254322999931,43.26020658500005]]]]}},{"type":"Feature","id":"ES21","properties":{"NUTS_ID":"ES21","NAME_LATN":"País Vasco","CNTR_CODE":"ES"},"geometry":{"type":"MultiPolygon","coordinates":[[[[-2.759865806999926,43.44766025000007],[-2.41284679499995,43.32108296600006],[-2.229769622999925,43.30972682600003],[-2.150661579999962,43.293896913000026],[-1.820578953999927,43.37898415900003],[-1.785981393999975,43.350584328000025],[-1.728903005999939,43.29608895400003],[-1.863524989999974,43.22534763500005],[-1.901003498999955,43.20565338500006],[-1.917057711999973,43.13206049100006],[-2.100124630999971,42.96004019800006],[-2.211410113999932,42.94000864800006],[-2.250807096999949,42.89569117600007],[-2.250476314999958,42.82630902000005],[-2.31280105999997,42.712972007000076],[-2.31503018199993,42.65980433800007],[-2.422706991999974,42.648168852000026],[-2.467400519999956,42.60729269600006],[-2.407122801999947,42.577976343000046],[-2.420719172999952,42.489269353000054],[-2.651001443999974,42.49335932400004],[-2.687229603999981,42.52690796400003],[-2.69890892899997,42.600931830000036],[-2.755773524999938,42.61681911800008],[-2.82158637699996,42.565039487000035],[-2.858067526999946,42.63838417900007],[-2.92918591199998,42.69507697900008],[-2.987744741999961,42.719127478000075],[-3.114132194999968,42.76789076500006],[-3.150761343999932,42.862712196000075],[-3.248498984999969,42.87449866500003],[-3.208101313999975,42.92715417000005],[-3.036323343999925,42.92005608200003],[-3.037527900999976,42.98243895400003],[-3.089153542999952,43.001503659000036],[-3.15339991899998,43.02447022400003],[-3.142007216999957,43.09100834600008],[-3.169889399999931,43.12411700700005],[-3.141839496999978,43.16113650300008],[-3.270004352999933,43.19324415300008],[-3.417607936999957,43.13331597700005],[-3.43519828899997,43.23642384100003],[-3.322909134999975,43.29522934700003],[-3.184346253999934,43.29314113200007],[-3.153338109999936,43.35322211300007],[-3.02792504599995,43.332313502000034],[-3.024790609999968,43.37412940100006],[-2.987744741999961,43.39730308800006],[-2.935045806999938,43.430268400000045],[-2.759865806999926,43.44766025000007]],[[-3.294683548999956,43.20628529100003],[-3.277084159999959,43.19833299100003],[-3.252254322999931,43.26020658500005],[-3.307633557999964,43.26145747900006],[-3.294683548999956,43.20628529100003]],[[-2.883917760999964,42.74503836900004],[-2.748829876999935,42.66236335800005],[-2.564124954999954,42.674775271000044],[-2.567246730999955,42.739652171000046],[-2.621214981999969,42.77524585100008],[-2.809472295999967,42.79823728400004],[-2.883917760999964,42.74503836900004]]]]}},{"type":"Feature","id":"ES22","properties":{"NUTS_ID":"ES22","NAME_LATN":"Comunidad Foral de Navarra","CNTR_CODE":"ES"},"geometry":{"type":"MultiPolygon","coordinates":[[[[-1.416882302999966,43.04564972400004],[-1.367020644999968,43.04103252900006],[-1.304474639999967,43.09308584200005],[-1.25128684799995,43.04910165100006],[-0.994116148999979,42.96940406600004],[-0.760222015999943,42.96051911200004],[-0.724501161999967,42.92015867100008],[-0.80562780899993,42.905190995000055],[-0.901080265999951,42.74269099800006],[-0.973874415999944,42.712972007000076],[-1.012353873999928,42.69726235700006],[-1.057586528999934,42.65239916100006],[-1.146474318999935,42.63332370400008],[-1.287060457999928,42.51108496300003],[-1.337606510999933,42.39233360600008],[-1.403858075999949,42.23668419900008],[-1.388034799999957,42.13255151300007],[-1.320869680999976,42.050115170000026],[-1.399240406999979,41.938407416000075],[-1.554923841999937,41.92023544500006],[-1.847183446999964,42.00798811400006],[-1.895849478999935,42.038013155000044],[-1.889174424999965,42.08128355200006],[-1.820805003999965,42.13974437300004],[-1.708904267999969,42.15095125200003],[-1.711600569999973,42.19186259300005],[-1.989115969999943,42.35169179600007],[-2.116615946999957,42.39233360600008],[-2.420719172999952,42.489269353000054],[-2.407122801999947,42.577976343000046],[-2.467400519999956,42.60729269600006],[-2.422706991999974,42.648168852000026],[-2.31503018199993,42.65980433800007],[-2.31280105999997,42.712972007000076],[-2.250476314999958,42.82630902000005],[-2.250807096999949,42.89569117600007],[-2.211410113999932,42.94000864800006],[-2.100124630999971,42.96004019800006],[-1.917057711999973,43.13206049100006],[-1.901003498999955,43.20565338500006],[-1.863524989999974,43.22534763500005],[-1.728903005999939,43.29608895400003],[-1.407084658999963,43.25684808200003],[-1.403068291999944,43.22534763500005],[-1.39751178399996,43.18176782900008],[-1.452349743999946,43.082767611000065],[-1.416882302999966,43.04564972400004]]],[[[-1.137420985999938,42.43538169400006],[-1.157728974999941,42.397998105000056],[-1.216055700999959,42.401794007000035],[-1.178457167999966,42.440455685000074],[-1.137420985999938,42.43538169400006]]],[[[-1.052745886999958,42.44143226800003],[-1.071245601999976,42.433998314000064],[-1.13880381599995,42.44475802100004],[-1.095200548999969,42.48466041100005],[-1.052745886999958,42.44143226800003]]]]}},{"type":"Feature","id":"ES23","properties":{"NUTS_ID":"ES23","NAME_LATN":"La Rioja","CNTR_CODE":"ES"},"geometry":{"type":"MultiPolygon","coordinates":[[[[-1.847183446999964,42.00798811400006],[-1.856539460999954,41.96638832300005],[-1.962723944999937,41.928558474000056],[-2.071634132999975,41.95377917800005],[-2.151996022999924,42.08773923700005],[-2.352684112999953,42.137702002000026],[-2.491344824999942,42.107565504000036],[-2.600447072999941,42.006089392000035],[-2.730768630999933,42.021129237000025],[-2.745281989999967,42.111382313000036],[-2.822231448999958,42.04251996100004],[-2.913637747999928,42.022838568000054],[-2.948347373999979,42.08128355200006],[-2.987744741999961,42.089733798000054],[-3.03428297499994,42.09971567000008],[-3.109598708999954,42.18880702600006],[-3.102702810999972,42.31735687200006],[-3.07305587999997,42.368274747000044],[-3.092619509999963,42.39233360600008],[-3.115758887999959,42.42078982900006],[-3.066454891999967,42.451090244000056],[-3.103792194999926,42.544552563000025],[-3.051717703999941,42.62948454900004],[-2.987744741999961,42.63242457100006],[-2.858067526999946,42.63838417900007],[-2.82158637699996,42.565039487000035],[-2.755773524999938,42.61681911800008],[-2.69890892899997,42.600931830000036],[-2.687229603999981,42.52690796400003],[-2.651001443999974,42.49335932400004],[-2.420719172999952,42.489269353000054],[-2.116615946999957,42.39233360600008],[-1.989115969999943,42.35169179600007],[-1.711600569999973,42.19186259300005],[-1.708904267999969,42.15095125200003],[-1.820805003999965,42.13974437300004],[-1.889174424999965,42.08128355200006],[-1.895849478999935,42.038013155000044],[-1.847183446999964,42.00798811400006]]]]}},{"type":"Feature","id":"ES24","properties":{"NUTS_ID":"ES24","NAME_LATN":"Aragón","CNTR_CODE":"ES"},"geometry":{"type":"MultiPolygon","coordinates":[[[[-0.669325556999979,42.87743411400004],[-0.562512750999929,42.79472492000008],[-0.396315349999952,42.80767822700005],[-0.313341956999977,42.849364937000075],[-0.074056705999965,42.712972007000076],[-0.046495983999932,42.69726235700006],[0.002994517000047,42.69726235700006],[0.082147613000075,42.712972007000076],[0.179828278000059,42.732358857000065],[0.225684501000046,42.712972007000076],[0.262842950000049,42.69726235700006],[0.296009798000057,42.683240254000054],[0.323568335000061,42.69726235700006],[0.35444351700005,42.712972007000076],[0.387321536000059,42.712972007000076],[0.477670138000065,42.70004738500006],[0.533542862000047,42.69726235700006],[0.660127054000043,42.69095264900005],[0.752702338000063,42.59586713200008],[0.705592113000023,42.47857622300006],[0.71883299700005,42.39233360600008],[0.73647326400004,42.27743622700007],[0.684111575000031,42.08128355200006],[0.575230550000072,41.941111026000044],[0.582439231000023,41.86559338300003],[0.565147354000032,41.852588565000076],[0.334103286000072,41.67882569500006],[0.358236661000035,41.606611626000074],[0.422379974000023,41.59479524100004],[0.439925097000071,41.55147710800003],[0.354608344000042,41.48072166000003],[0.33594836900005,41.40743234900003],[0.385557770000048,41.278612432000045],[0.297930415000053,41.16780993800006],[0.228906626000025,41.129719532000024],[0.220754469000042,41.07133057000004],[0.284323391000044,40.97362961600004],[0.247474667000063,40.887112700000046],[0.26903143800007,40.82268085100003],[0.170485307000035,40.73293597800006],[0.047810511000023,40.69954205800008],[-0.179178476999937,40.78348251700004],[-0.252905584999951,40.68600674100003],[-0.369026699999949,40.66209773700007],[-0.363405959999966,40.61815385500006],[-0.295127008999941,40.59492020500005],[-0.283489872999951,40.47911056700008],[-0.335304784999948,40.44029651200003],[-0.289858310999932,40.37106543700003],[-0.412940409999976,40.252048467000066],[-0.542397124999979,40.239344078000045],[-0.562512750999929,40.20370398600005],[-0.637583228999972,40.070697],[-0.669325556999979,40.06189687600005],[-0.753192156999944,40.03864601500004],[-0.831612363999966,39.972479726000074],[-0.836336462999952,39.926338101000056],[-0.797643189999974,39.88107655500005],[-0.887726288999943,39.86103522800005],[-0.915666189999968,39.941664573000025],[-0.987583159999929,39.97742364800007],[-1.14236135699997,39.97185564500006],[-1.165153812999961,40.010108943000034],[-1.095003112999962,40.03728477000004],[-1.091889025999933,40.07267227600005],[-1.245495808999976,40.12406738100003],[-1.295335905999934,40.19475218800005],[-1.346282448999943,40.13649217500006],[-1.448831388999963,40.14535862400004],[-1.447825791999946,40.18824150200004],[-1.553429751999943,40.20332983600008],[-1.716205650999939,40.304242146000036],[-1.729337571999963,40.34603934900008],[-1.805663978999974,40.397994819000075],[-1.701884749999977,40.48867491000004],[-1.687790785999937,40.57079139000007],[-1.59151144599997,40.57024282400005],[-1.555933211999957,40.596520733000034],[-1.545073964999972,40.79907261900007],[-1.613953051999943,40.88092802500006],[-1.617433432999974,40.94374118600007],[-1.801139582999951,41.084486740000045],[-1.957093121999947,41.16322540200008],[-2.051689751999959,41.14685816200006],[-2.140654071999961,41.20129157000008],[-2.158344387999932,41.33870150400003],[-2.098262986999941,41.42745024200008],[-2.018710985999974,41.39657328900006],[-1.969382812999925,41.41698310800007],[-1.978404766999972,41.584761754000056],[-1.913469579999969,41.629871011000034],[-1.799051891999966,41.70935483400007],[-1.834855286999925,41.78723954000003],[-1.823881942999947,41.852588565000076],[-1.856539460999954,41.96638832300005],[-1.847183446999964,42.00798811400006],[-1.554923841999937,41.92023544500006],[-1.399240406999979,41.938407416000075],[-1.320869680999976,42.050115170000026],[-1.388034799999957,42.13255151300007],[-1.403858075999949,42.23668419900008],[-1.337606510999933,42.39233360600008],[-1.287060457999928,42.51108496300003],[-1.146474318999935,42.63332370400008],[-1.057586528999934,42.65239916100006],[-1.012353873999928,42.69726235700006],[-0.973874415999944,42.712972007000076],[-0.901080265999951,42.74269099800006],[-0.80562780899993,42.905190995000055],[-0.724501161999967,42.92015867100008],[-0.669325556999979,42.87743411400004]],[[-1.13880381599995,42.44475802100004],[-1.071245601999976,42.433998314000064],[-1.052745886999958,42.44143226800003],[-1.095200548999969,42.48466041100005],[-1.13880381599995,42.44475802100004]],[[-1.137420985999938,42.43538169400006],[-1.178457167999966,42.440455685000074],[-1.216055700999959,42.401794007000035],[-1.157728974999941,42.397998105000056],[-1.137420985999938,42.43538169400006]]]]}},{"type":"Feature","id":"ES30","properties":{"NUTS_ID":"ES30","NAME_LATN":"Comunidad de Madrid","CNTR_CODE":"ES"},"geometry":{"type":"MultiPolygon","coordinates":[[[[-3.138088491999952,40.40368670100003],[-3.187440034999952,40.253300110000055],[-3.107425848999981,40.27271778200003],[-3.067810462999944,40.15802383600004],[-3.070578934999958,40.08822219600006],[-3.161419552999973,40.06489718900008],[-3.18342664599993,40.08230732900006],[-3.276964198999963,40.05040730500008],[-3.352035093999973,40.07576899400004],[-3.395570622999969,40.04124541300007],[-3.504038570999967,40.04024206400004],[-3.568812538999964,40.00994005300004],[-3.822688399999947,39.89117399000003],[-3.867640373999961,39.925898817000075],[-3.739106483999933,39.96382096800005],[-3.710259064999946,40.00750117500007],[-3.632275085999936,40.051233731000025],[-3.617972939999959,40.10981299000008],[-3.990389562999951,40.214166910000074],[-4.057691277999936,40.25939779400005],[-4.134832382999946,40.24806483500004],[-4.186423207999951,40.28847393400008],[-4.315499060999969,40.226713833000076],[-4.345375846999957,40.24335428300003],[-4.371284660999947,40.31123251400004],[-4.449566198999946,40.23591258000005],[-4.533724187999951,40.20473176400003],[-4.579075753999973,40.21719598300007],[-4.538363561999972,40.330729303000055],[-4.462795126999936,40.324024422000036],[-4.424899823999965,40.398399649000055],[-4.334329351999941,40.42426131900004],[-4.316170286999977,40.545253642000034],[-4.267873259999931,40.59912066600003],[-4.174835340999948,40.62195250700006],[-4.160293592999949,40.689853421000066],[-4.074255989999926,40.78374596000003],[-3.979339762999928,40.794696584000064],[-3.899612597999976,40.95807984700008],[-3.785343621999971,41.00392651100003],[-3.613138683999978,41.144743937000044],[-3.568812538999964,41.156945060000055],[-3.539573247999954,41.164993407000054],[-3.435966949999965,41.07206267600003],[-3.40393934399998,41.00192059600005],[-3.478921812999943,40.82181359700007],[-3.456299160999947,40.691822398000056],[-3.374869747999981,40.66754227100006],[-3.277402848999941,40.54686051900006],[-3.207308328999943,40.51287174000004],[-3.192901814999971,40.45068067500006],[-3.138088491999952,40.40368670100003]]],[[[-4.269437855999968,40.65524349200007],[-4.319343841999967,40.64759940300007],[-4.323202447999961,40.65737101700006],[-4.314561433999927,40.66723058600007],[-4.288211714999932,40.680591427000024],[-4.274096251999936,40.67707234200003],[-4.269437855999968,40.65524349200007]]]]}},{"type":"Feature","id":"ES41","properties":{"NUTS_ID":"ES41","NAME_LATN":"Castilla y León","CNTR_CODE":"ES"},"geometry":{"type":"MultiPolygon","coordinates":[[[[-4.754633422999973,43.06280551200007],[-4.737845317999927,43.02094402500006],[-4.449829701999931,43.05319158300006],[-4.338763277999931,42.97446596300006],[-4.251913305999949,42.96004019800006],[-4.219553774999952,42.86248567800004],[-4.143831251999927,42.862164550000045],[-4.169069341999943,42.807551008000075],[-4.081458444999953,42.76162308600004],[-4.046112058999938,42.76680041100008],[-4.044070620999946,42.78198714700005],[-4.011591463999935,42.81062921300003],[-3.998888858999976,42.79938128400005],[-3.999670106999929,42.76893244900003],[-3.923286036999968,42.77290756100007],[-3.832815068999935,42.82768056800006],[-3.87030950999997,42.89163861900005],[-3.857793855999944,42.92965066900007],[-3.952205053999933,42.921047110000075],[-3.963924348999967,42.96645563800007],[-3.684224202999928,43.14776339500003],[-3.630603765999979,43.165109339000026],[-3.568812538999964,43.155885915000056],[-3.417607936999957,43.13331597700005],[-3.270004352999933,43.19324415300008],[-3.141839496999978,43.16113650300008],[-3.169889399999931,43.12411700700005],[-3.142007216999957,43.09100834600008],[-3.15339991899998,43.02447022400003],[-3.089153542999952,43.001503659000036],[-3.037527900999976,42.98243895400003],[-3.036323343999925,42.92005608200003],[-3.208101313999975,42.92715417000005],[-3.248498984999969,42.87449866500003],[-3.150761343999932,42.862712196000075],[-3.114132194999968,42.76789076500006],[-2.987744741999961,42.719127478000075],[-2.92918591199998,42.69507697900008],[-2.858067526999946,42.63838417900007],[-2.987744741999961,42.63242457100006],[-3.051717703999941,42.62948454900004],[-3.103792194999926,42.544552563000025],[-3.066454891999967,42.451090244000056],[-3.115758887999959,42.42078982900006],[-3.092619509999963,42.39233360600008],[-3.07305587999997,42.368274747000044],[-3.102702810999972,42.31735687200006],[-3.109598708999954,42.18880702600006],[-3.03428297499994,42.09971567000008],[-2.987744741999961,42.089733798000054],[-2.948347373999979,42.08128355200006],[-2.913637747999928,42.022838568000054],[-2.822231448999958,42.04251996100004],[-2.745281989999967,42.111382313000036],[-2.730768630999933,42.021129237000025],[-2.600447072999941,42.006089392000035],[-2.491344824999942,42.107565504000036],[-2.352684112999953,42.137702002000026],[-2.151996022999924,42.08773923700005],[-2.071634132999975,41.95377917800005],[-1.962723944999937,41.928558474000056],[-1.856539460999954,41.96638832300005],[-1.823881942999947,41.852588565000076],[-1.834855286999925,41.78723954000003],[-1.799051891999966,41.70935483400007],[-1.913469579999969,41.629871011000034],[-1.978404766999972,41.584761754000056],[-1.969382812999925,41.41698310800007],[-2.018710985999974,41.39657328900006],[-2.098262986999941,41.42745024200008],[-2.158344387999932,41.33870150400003],[-2.140654071999961,41.20129157000008],[-2.051689751999959,41.14685816200006],[-2.068315120999955,41.08445366400008],[-2.131736649999937,41.10928154000004],[-2.294108152999968,41.062364358000025],[-2.42490111199993,41.06356348000003],[-2.512235965999935,41.13816119200004],[-2.585861136999938,41.15174873800004],[-2.599375683999938,41.21742229500006],[-2.727833496999949,41.27106611700003],[-2.840974341999924,41.26867375300003],[-2.896810470999981,41.322074144000055],[-2.987744741999961,41.29765159300007],[-3.061295929999972,41.27789768000008],[-3.20737305199998,41.304245],[-3.261559572999943,41.26196704300003],[-3.383464232999927,41.254951540000036],[-3.539573247999954,41.164993407000054],[-3.568812538999964,41.156945060000055],[-3.613138683999978,41.144743937000044],[-3.785343621999971,41.00392651100003],[-3.899612597999976,40.95807984700008],[-3.979339762999928,40.794696584000064],[-4.074255989999926,40.78374596000003],[-4.160293592999949,40.689853421000066],[-4.174835340999948,40.62195250700006],[-4.267873259999931,40.59912066600003],[-4.316170286999977,40.545253642000034],[-4.334329351999941,40.42426131900004],[-4.424899823999965,40.398399649000055],[-4.462795126999936,40.324024422000036],[-4.538363561999972,40.330729303000055],[-4.579075753999973,40.21719598300007],[-4.659675969999967,40.20786729500003],[-4.706180536999966,40.27404507600005],[-4.790814489999946,40.268080578000024],[-4.973376526999971,40.12254098900007],[-5.038605154999971,40.15325491600004],[-5.17120291699996,40.088228118000075],[-5.33601643399993,40.11585607100005],[-5.363854056999969,40.249534],[-5.534707783999977,40.19877704800007],[-5.737602367999955,40.294163009000044],[-5.783947327999954,40.29195471000003],[-5.811110062999944,40.34590272300005],[-5.924873575999925,40.28828423200008],[-5.979657548999967,40.298330487000044],[-6.074007197999947,40.355617718000076],[-6.162897184999963,40.458005264000064],[-6.226821237999957,40.482401217000074],[-6.53501644399995,40.34078082600007],[-6.592735303999973,40.27266360300007],[-6.771693725999967,40.242167014000074],[-6.865144205999968,40.27069454400004],[-6.78871655599994,40.35529001100008],[-6.842220654999949,40.44237373300007],[-6.801588018999951,40.51883210200003],[-6.83757950699993,40.57958620200003],[-6.80056768999998,40.66142110000004],[-6.826378256999931,40.75551844600005],[-6.80816075499996,40.859236587000055],[-6.929864671999951,41.02933623200005],[-6.807831004999969,41.04870260200005],[-6.689786233999939,41.20524137500007],[-6.479713167999932,41.29437983400004],[-6.328375226999981,41.391630615000054],[-6.203885261999972,41.585592295000026],[-6.268318446999956,41.629871011000034],[-6.323686218999967,41.66791994400006],[-6.538349325999945,41.68224069200005],[-6.553774435999969,41.74757233500003],[-6.52506981099998,41.86432895300004],[-6.560452296999927,41.88798302600003],[-6.576681504999954,41.95480267200003],[-6.716600460999928,41.937879861000056],[-6.796093750999944,41.98685815500005],[-6.834670414999948,41.94849751700008],[-6.897984509999958,41.941856560000076],[-6.985800483999981,41.971447057000034],[-6.998265633999949,42.09771584500004],[-6.925517009999965,42.175557611000045],[-6.784307801999944,42.25360863700007],[-6.748696609999968,42.34287123300004],[-6.811320733999935,42.39233360600008],[-6.855104454999946,42.477545821000035],[-7.077069196999958,42.508000681000055],[-7.05514760799997,42.56666268200007],[-7.03210805599997,42.69726235700006],[-7.005839474999959,42.712972007000076],[-6.877391830999954,42.78978878000004],[-6.824167129999978,42.91501247000008],[-6.759985006999955,42.89074668500007],[-6.694395870999927,42.91790495300006],[-6.534989483999937,42.918331128000034],[-6.43689166799993,42.96004019800006],[-6.461727321999945,42.976619139000036],[-6.363390220999975,43.05132316000004],[-6.236611736999976,43.018292203000044],[-6.195255798999938,43.04509856100003],[-6.119926889999931,43.028978496000036],[-6.071181596999963,43.06819218700008],[-5.985083276999944,43.06018312200007],[-5.93364523799994,43.00958847600003],[-5.801570710999954,42.968657706000045],[-5.696925388999944,43.05085532700008],[-5.519175693999955,43.02088515600008],[-5.370526984999969,43.08249762500003],[-5.11427828199993,43.109002462000035],[-5.070252619999962,43.17283049300005],[-4.913933876999977,43.23110055400008],[-4.841023183999937,43.18078011600005],[-4.83843074899994,43.11418035600008],[-4.754633422999973,43.06280551200007]],[[-4.323202447999961,40.65737101700006],[-4.319343841999967,40.64759940300007],[-4.269437855999968,40.65524349200007],[-4.274096251999936,40.67707234200003],[-4.288211714999932,40.680591427000024],[-4.314561433999927,40.66723058600007],[-4.323202447999961,40.65737101700006]]],[[[-2.564124954999954,42.674775271000044],[-2.748829876999935,42.66236335800005],[-2.883917760999964,42.74503836900004],[-2.809472295999967,42.79823728400004],[-2.621214981999969,42.77524585100008],[-2.567246730999955,42.739652171000046],[-2.564124954999954,42.674775271000044]]],[[[-4.034659760999944,42.81227352800005],[-4.067033115999948,42.78616077700008],[-4.120530523999946,42.81152037000004],[-4.071423618999972,42.83310976100006],[-4.034659760999944,42.81227352800005]]]]}},{"type":"Feature","id":"ES42","properties":{"NUTS_ID":"ES42","NAME_LATN":"Castilla-La Mancha","CNTR_CODE":"ES"},"geometry":{"type":"MultiPolygon","coordinates":[[[[-2.896810470999981,41.322074144000055],[-2.840974341999924,41.26867375300003],[-2.727833496999949,41.27106611700003],[-2.599375683999938,41.21742229500006],[-2.585861136999938,41.15174873800004],[-2.512235965999935,41.13816119200004],[-2.42490111199993,41.06356348000003],[-2.294108152999968,41.062364358000025],[-2.131736649999937,41.10928154000004],[-2.068315120999955,41.08445366400008],[-2.051689751999959,41.14685816200006],[-1.957093121999947,41.16322540200008],[-1.801139582999951,41.084486740000045],[-1.617433432999974,40.94374118600007],[-1.613953051999943,40.88092802500006],[-1.545073964999972,40.79907261900007],[-1.555933211999957,40.596520733000034],[-1.59151144599997,40.57024282400005],[-1.687790785999937,40.57079139000007],[-1.701884749999977,40.48867491000004],[-1.805663978999974,40.397994819000075],[-1.729337571999963,40.34603934900008],[-1.716205650999939,40.304242146000036],[-1.553429751999943,40.20332983600008],[-1.447825791999946,40.18824150200004],[-1.448831388999963,40.14535862400004],[-1.368713415999935,40.01955877600005],[-1.165153812999961,40.010108943000034],[-1.14236135699997,39.97185564500006],[-1.197579859999962,39.941031949000035],[-1.209263053999962,39.831621883000025],[-1.274869839999951,39.69520061400004],[-1.388968667999961,39.67452991700003],[-1.499878106999972,39.55582050600003],[-1.505244664999964,39.41763913300008],[-1.435927770999967,39.37003372700008],[-1.172094611999967,39.30086231100006],[-1.257714475999933,39.050565378000044],[-1.139613768999936,38.93287546700003],[-0.956146131999958,38.93382239600004],[-0.928884604999951,38.783840131000034],[-0.951667153999949,38.76541878000006],[-0.928791039999965,38.68823859100007],[-1.026869790999967,38.65550941400005],[-1.177708355999926,38.75118876000005],[-1.325927544999956,38.68763261400005],[-1.39353002699994,38.69197088800007],[-1.491805153999962,38.54433329200003],[-1.479879425999968,38.399745402000065],[-1.500520422999955,38.36390092100004],[-1.634778198999925,38.31118174900007],[-1.759547724999948,38.372936811000045],[-1.919614744999933,38.297066167000025],[-2.053739388999929,38.29581372600006],[-2.210159199999964,38.19973373800008],[-2.341195296999956,38.025868986000035],[-2.551273856999956,38.08411801700004],[-2.448701831999927,38.196653843000036],[-2.487082374999943,38.384219071000075],[-2.563038749999976,38.41627994900006],[-2.589621292999936,38.50234939300003],[-2.762069113999928,38.53277962800007],[-2.865556071999947,38.470644281000034],[-2.987744741999961,38.44123141600005],[-3.006177509999929,38.43679433900007],[-3.067031258999975,38.46238078300007],[-3.157402778999938,38.445816129000036],[-3.327617663999945,38.47300048900007],[-3.462020465999956,38.40842640300008],[-3.568812538999964,38.44291512800004],[-3.610109267999974,38.40064640700007],[-3.778279478999934,38.42354074000008],[-3.889101625999956,38.37261706800007],[-4.250257790999967,38.39671787200007],[-4.268894880999937,38.34721307900003],[-4.44256487499996,38.40087543000004],[-4.689601446999973,38.560944009000025],[-4.84681206199997,38.613415590000045],[-4.885680865999973,38.68094620100004],[-4.982160016999956,38.690784757000074],[-5.046995845999959,38.72913357700003],[-4.980144560999975,38.757867307000026],[-4.92507631899997,38.873413225000036],[-4.839916646999939,38.91243892400007],[-4.93169901899995,38.98244575600006],[-4.953419255999961,39.05015302400005],[-4.842912125999931,39.05037502000005],[-4.864923697999927,39.11970469800008],[-4.808657166999978,39.19098568000004],[-4.676243909999926,39.180170246000046],[-4.750818141999957,39.306770673000074],[-4.682677099999978,39.39989040700004],[-4.686936371999934,39.44972949400005],[-4.75541113099996,39.415760083000066],[-4.866705922999927,39.37479170300003],[-4.940783379999971,39.395164385000044],[-4.952554687999964,39.395038562000025],[-5.19228521399998,39.59063189400007],[-5.14452083499998,39.702589483000054],[-5.170021003999977,39.79005965300007],[-5.291511088999926,39.76028363000006],[-5.301331451999943,39.87188433400007],[-5.397695959999965,39.887727633000054],[-5.369173390999947,40.08313076200005],[-5.33601643399993,40.11585607100005],[-5.17120291699996,40.088228118000075],[-5.038605154999971,40.15325491600004],[-4.973376526999971,40.12254098900007],[-4.790814489999946,40.268080578000024],[-4.706180536999966,40.27404507600005],[-4.659675969999967,40.20786729500003],[-4.579075753999973,40.21719598300007],[-4.533724187999951,40.20473176400003],[-4.449566198999946,40.23591258000005],[-4.371284660999947,40.31123251400004],[-4.345375846999957,40.24335428300003],[-4.315499060999969,40.226713833000076],[-4.186423207999951,40.28847393400008],[-4.134832382999946,40.24806483500004],[-4.057691277999936,40.25939779400005],[-3.990389562999951,40.214166910000074],[-3.617972939999959,40.10981299000008],[-3.632275085999936,40.051233731000025],[-3.710259064999946,40.00750117500007],[-3.739106483999933,39.96382096800005],[-3.867640373999961,39.925898817000075],[-3.822688399999947,39.89117399000003],[-3.568812538999964,40.00994005300004],[-3.504038570999967,40.04024206400004],[-3.395570622999969,40.04124541300007],[-3.352035093999973,40.07576899400004],[-3.276964198999963,40.05040730500008],[-3.18342664599993,40.08230732900006],[-3.161419552999973,40.06489718900008],[-3.070578934999958,40.08822219600006],[-3.067810462999944,40.15802383600004],[-3.107425848999981,40.27271778200003],[-3.187440034999952,40.253300110000055],[-3.138088491999952,40.40368670100003],[-3.192901814999971,40.45068067500006],[-3.207308328999943,40.51287174000004],[-3.277402848999941,40.54686051900006],[-3.374869747999981,40.66754227100006],[-3.456299160999947,40.691822398000056],[-3.478921812999943,40.82181359700007],[-3.40393934399998,41.00192059600005],[-3.435966949999965,41.07206267600003],[-3.539573247999954,41.164993407000054],[-3.383464232999927,41.254951540000036],[-3.261559572999943,41.26196704300003],[-3.20737305199998,41.304245],[-3.061295929999972,41.27789768000008],[-2.987744741999961,41.29765159300007],[-2.896810470999981,41.322074144000055]]]]}},{"type":"Feature","id":"ES43","properties":{"NUTS_ID":"ES43","NAME_LATN":"Extremadura","CNTR_CODE":"ES"},"geometry":{"type":"MultiPolygon","coordinates":[[[[-5.979657548999967,40.298330487000044],[-5.924873575999925,40.28828423200008],[-5.811110062999944,40.34590272300005],[-5.783947327999954,40.29195471000003],[-5.737602367999955,40.294163009000044],[-5.534707783999977,40.19877704800007],[-5.363854056999969,40.249534],[-5.33601643399993,40.11585607100005],[-5.369173390999947,40.08313076200005],[-5.397695959999965,39.887727633000054],[-5.301331451999943,39.87188433400007],[-5.291511088999926,39.76028363000006],[-5.170021003999977,39.79005965300007],[-5.14452083499998,39.702589483000054],[-5.19228521399998,39.59063189400007],[-4.952554687999964,39.395038562000025],[-4.940783379999971,39.395164385000044],[-4.866705922999927,39.37479170300003],[-4.75541113099996,39.415760083000066],[-4.686936371999934,39.44972949400005],[-4.682677099999978,39.39989040700004],[-4.750818141999957,39.306770673000074],[-4.676243909999926,39.180170246000046],[-4.808657166999978,39.19098568000004],[-4.864923697999927,39.11970469800008],[-4.842912125999931,39.05037502000005],[-4.953419255999961,39.05015302400005],[-4.93169901899995,38.98244575600006],[-4.839916646999939,38.91243892400007],[-4.92507631899997,38.873413225000036],[-4.980144560999975,38.757867307000026],[-5.046995845999959,38.72913357700003],[-5.161734928999977,38.706685279000055],[-5.565783966999959,38.42794607500008],[-5.569317164999973,38.338704825000036],[-5.523999845999981,38.21162719400007],[-5.584845565999956,38.13175204100003],[-5.715425803999949,38.08766367000004],[-5.735531163999951,38.11431867500005],[-5.70933101299994,38.18681808000008],[-5.837928303999945,38.17148048700005],[-5.912665318999927,38.113441084000044],[-5.952994374999946,38.00419143400006],[-6.096436231999974,37.98561082300006],[-6.180307717999938,37.94107812100003],[-6.312225139999953,37.98626237900004],[-6.393172246999939,38.05163033200006],[-6.497544719999951,38.01612021100004],[-6.568229748999954,38.02649723300004],[-6.623878839999975,38.09138729500006],[-6.756385375999969,38.09950895700007],[-6.806189432999929,38.12512084300005],[-6.808944871999927,38.174995780000074],[-6.931738572999961,38.208378046000064],[-7.05514760799997,38.17948929000005],[-7.107952585999953,38.188121617000036],[-7.308414722999942,38.44776451100006],[-7.307032946999925,38.525952421000056],[-7.255434013999945,38.61541787700003],[-7.260157035999953,38.70599305800005],[-7.203134912999928,38.75101749100003],[-7.05514760799997,38.85906227100003],[-6.960074817999953,39.02635741300003],[-6.987084030999938,39.08743057600003],[-7.05514760799997,39.11703570900005],[-7.131942404999961,39.11031518200008],[-7.148672902999976,39.170142773000066],[-7.237566782999977,39.21418558800008],[-7.231467159999966,39.278431039000054],[-7.312663629999975,39.35370812700006],[-7.308922915999972,39.45928789000004],[-7.492743548999954,39.590039303000026],[-7.542845391999947,39.66278609400007],[-7.347438213999965,39.64352095600003],[-7.05514760799997,39.66087212900004],[-7.012557274999949,39.68605419000005],[-6.975552499999935,39.81150952000007],[-6.911448041999961,39.87108785600003],[-6.873907016999965,40.00517159100008],[-6.940094271999953,40.10260055300006],[-7.018677851999939,40.15538699600006],[-7.01324898699994,40.21492178600005],[-6.951298650999945,40.257446025000036],[-6.865144205999968,40.27069454400004],[-6.771693725999967,40.242167014000074],[-6.592735303999973,40.27266360300007],[-6.53501644399995,40.34078082600007],[-6.226821237999957,40.482401217000074],[-6.162897184999963,40.458005264000064],[-6.074007197999947,40.355617718000076],[-5.979657548999967,40.298330487000044]]]]}},{"type":"Feature","id":"ES51","properties":{"NUTS_ID":"ES51","NAME_LATN":"Cataluña","CNTR_CODE":"ES"},"geometry":{"type":"MultiPolygon","coordinates":[[[[1.464022998000075,42.440003931000035],[1.53816379400007,42.43666140900007],[1.725801230000059,42.50440199700006],[1.731010891000039,42.49240083700005],[1.83563341100006,42.46759678300003],[1.853261265000071,42.46341754700006],[1.893683155000076,42.45383426800004],[2.027519672000039,42.369001258000026],[2.262851338000075,42.42552270500005],[2.55434069000006,42.34208674400003],[2.63318887600002,42.349216123000076],[2.722768700000074,42.41387520300003],[2.925389756000072,42.465253424000025],[3.174022446000038,42.43523914200006],[3.173376363000045,42.43358578300007],[3.164404636000029,42.37068633200005],[3.241091101000052,42.34017576800005],[3.296525748000022,42.318120477000036],[3.271002113000065,42.257699708000075],[3.154200404000051,42.25404539900006],[3.115563087000055,42.20090490700005],[3.124793676000024,42.13894845100003],[3.202955023000072,42.06395707100006],[3.224110762000066,41.96026842800006],[3.206230816000073,41.905696438000064],[3.135174690000042,41.852588565000076],[3.103533951000031,41.828940043000046],[3.047735411000076,41.787235802000055],[2.894058967000035,41.70821883900004],[2.778512932000069,41.64880767200003],[2.625185584000064,41.59106150100007],[2.55434069000006,41.56437988600004],[2.536695542000075,41.55773436700008],[2.336534315000051,41.48234961300005],[2.252396710000028,41.44257125100006],[2.106022800000062,41.29043024500004],[1.896140172000059,41.24723793600003],[1.853261265000071,41.23841377100007],[1.83563341100006,41.23478608800008],[1.645323423000036,41.19562168500005],[1.381176961000051,41.129719532000024],[0.968533231000038,41.02676865400008],[0.711721776000047,40.801914200000056],[0.869293153000058,40.72235827800006],[0.868424552000022,40.69889227900006],[0.749839620000046,40.637304706000066],[0.602247050000074,40.61705781200004],[0.515238434000025,40.522918609000044],[0.28971854200006,40.633839540000054],[0.276469545000054,40.68848959200005],[0.170485307000035,40.73293597800006],[0.26903143800007,40.82268085100003],[0.247474667000063,40.887112700000046],[0.284323391000044,40.97362961600004],[0.220754469000042,41.07133057000004],[0.228906626000025,41.129719532000024],[0.297930415000053,41.16780993800006],[0.385557770000048,41.278612432000045],[0.33594836900005,41.40743234900003],[0.354608344000042,41.48072166000003],[0.439925097000071,41.55147710800003],[0.422379974000023,41.59479524100004],[0.358236661000035,41.606611626000074],[0.334103286000072,41.67882569500006],[0.565147354000032,41.852588565000076],[0.582439231000023,41.86559338300003],[0.575230550000072,41.941111026000044],[0.684111575000031,42.08128355200006],[0.73647326400004,42.27743622700007],[0.71883299700005,42.39233360600008],[0.705592113000023,42.47857622300006],[0.752702338000063,42.59586713200008],[0.660127054000043,42.69095264900005],[0.662615567000046,42.712972007000076],[0.677338870000028,42.84324966400004],[0.858215053000038,42.82574115800003],[1.068172959000037,42.77850611300005],[1.174779499000067,42.71681356000005],[1.347723170000052,42.712972007000076],[1.361354401000028,42.69726235700006],[1.442566157000044,42.60366785300005],[1.44058155700003,42.47150645700003],[1.464022998000075,42.440003931000035]]],[[[0.692161777000024,40.58840799500007],[0.651546978000056,40.549550390000036],[0.607266321000054,40.569618707000075],[0.656775839000034,40.598234955000066],[0.692161777000024,40.58840799500007]]],[[[2.00534536300006,42.45128888000005],[1.980651602000023,42.43652373500004],[1.938912110000047,42.45503416500003],[1.978718320000041,42.497368151000046],[2.00534536300006,42.45128888000005]]]]}},{"type":"Feature","id":"ES52","properties":{"NUTS_ID":"ES52","NAME_LATN":"Comunitat Valenciana","CNTR_CODE":"ES"},"geometry":{"type":"MultiPolygon","coordinates":[[[[-0.179178476999937,40.78348251700004],[0.047810511000023,40.69954205800008],[0.170485307000035,40.73293597800006],[0.276469545000054,40.68848959200005],[0.28971854200006,40.633839540000054],[0.515238434000025,40.522918609000044],[0.390391356000066,40.341147318000026],[0.188749974000075,40.162670750000075],[0.124245636000069,40.07106822600008],[0.04927750500002,40.028404753000075],[-0.016141980999976,39.91015190600007],[-0.188466906999963,39.72195454700005],[-0.316002675999925,39.51173473700004],[-0.330384795999976,39.425523344000055],[-0.228276730999937,39.20013559100005],[-0.20207716799996,39.06592239200006],[-0.037615968999944,38.886413436000055],[0.170797434000065,38.815056293000055],[0.219685673000072,38.73849477300007],[-0.028945660999966,38.613591522000036],[-0.089203570999928,38.53397234400006],[-0.349080847999971,38.45585087400008],[-0.409808827999939,38.36258248300004],[-0.49444013599998,38.33510211600003],[-0.515902093999955,38.21059163900003],[-0.562512750999929,38.18366362300003],[-0.626939316999938,38.14644295900007],[-0.654210157999955,38.00473247700006],[-0.669325556999979,37.982642474000045],[-0.762135483999941,37.84700783900007],[-0.903814678999936,37.92957985700008],[-1.024710163999941,38.09046847600007],[-1.029568783999935,38.14068179000003],[-0.97439597999994,38.271833498000035],[-0.99493761399998,38.31843987600007],[-1.082804301999943,38.37520376400005],[-1.008583382999973,38.56444411200005],[-1.026869790999967,38.65550941400005],[-0.928791039999965,38.68823859100007],[-0.951667153999949,38.76541878000006],[-0.928884604999951,38.783840131000034],[-0.956146131999958,38.93382239600004],[-1.139613768999936,38.93287546700003],[-1.257714475999933,39.050565378000044],[-1.172094611999967,39.30086231100006],[-1.435927770999967,39.37003372700008],[-1.505244664999964,39.41763913300008],[-1.499878106999972,39.55582050600003],[-1.388968667999961,39.67452991700003],[-1.274869839999951,39.69520061400004],[-1.209263053999962,39.831621883000025],[-1.197579859999962,39.941031949000035],[-1.14236135699997,39.97185564500006],[-0.987583159999929,39.97742364800007],[-0.915666189999968,39.941664573000025],[-0.887726288999943,39.86103522800005],[-0.797643189999974,39.88107655500005],[-0.836336462999952,39.926338101000056],[-0.831612363999966,39.972479726000074],[-0.753192156999944,40.03864601500004],[-0.669325556999979,40.06189687600005],[-0.637583228999972,40.070697],[-0.562512750999929,40.20370398600005],[-0.542397124999979,40.239344078000045],[-0.412940409999976,40.252048467000066],[-0.289858310999932,40.37106543700003],[-0.335304784999948,40.44029651200003],[-0.283489872999951,40.47911056700008],[-0.295127008999941,40.59492020500005],[-0.363405959999966,40.61815385500006],[-0.369026699999949,40.66209773700007],[-0.252905584999951,40.68600674100003],[-0.179178476999937,40.78348251700004]]],[[[-1.295335905999934,40.19475218800005],[-1.245495808999976,40.12406738100003],[-1.091889025999933,40.07267227600005],[-1.095003112999962,40.03728477000004],[-1.165153812999961,40.010108943000034],[-1.368713415999935,40.01955877600005],[-1.448831388999963,40.14535862400004],[-1.346282448999943,40.13649217500006],[-1.295335905999934,40.19475218800005]]]]}},{"type":"Feature","id":"ES53","properties":{"NUTS_ID":"ES53","NAME_LATN":"Illes Balears","CNTR_CODE":"ES"},"geometry":{"type":"MultiPolygon","coordinates":[[[[3.170223778000036,39.76714050700008],[3.253129909000052,39.740325478000045],[3.362973474000057,39.772206476000065],[3.446166798000036,39.717116616000055],[3.440669228000047,39.65626538400005],[3.244137286000068,39.384977965000076],[3.067264696000052,39.28026589800004],[2.953354860000047,39.35251180500006],[2.781043711000052,39.38202418000003],[2.736834432000023,39.506238659000076],[2.681690816000071,39.54652654000006],[2.55434069000006,39.503897368000025],[2.536695542000075,39.497990833000074],[2.491779835000045,39.482955753000056],[2.363562003000027,39.557729272000074],[2.374182957000073,39.60029521800004],[2.442116622000071,39.64614843100003],[2.536695542000075,39.70214449400004],[2.55434069000006,39.712591418000045],[2.756029302000059,39.83200247000008],[2.961026122000021,39.91292778900004],[3.094883340000024,39.92396565100006],[3.107178041000054,39.87488238900005],[3.153830975000062,39.856146944000045],[3.13475913000002,39.81530821100006],[3.170223778000036,39.76714050700008]]],[[[1.606571807000023,38.673706167000034],[1.574899647000052,38.64800012100005],[1.520433486000059,38.672483845000045],[1.56892447000007,38.694756873000074],[1.606571807000023,38.673706167000034]]],[[[1.484296038000025,38.69616857900007],[1.392929450000054,38.646653893000064],[1.375917385000037,38.72149444100006],[1.439253934000021,38.74818412700006],[1.484296038000025,38.69616857900007]]],[[[1.420603358000051,38.89388731300005],[1.398183638000035,38.84217684500004],[1.239647021000053,38.86939720500004],[1.209665728000061,38.960480923000034],[1.278759806000039,38.97852764700008],[1.303668508000044,39.034864844000026],[1.36307189200005,39.07271064300005],[1.52221148700005,39.11323743400004],[1.592292364000059,39.07991085000003],[1.588320920000058,39.004899357000056],[1.420603358000051,38.89388731300005]]],[[[2.974916864000022,39.138363681000044],[2.953274868000051,39.11438123900007],[2.905816429000026,39.13288470700007],[2.935233573000062,39.171341864000055],[2.974916864000022,39.138363681000044]]],[[[3.195842589000051,39.954761606000034],[3.151010826000061,39.91525439900005],[3.112455216000058,39.93021903600004],[3.162963304000073,39.967159095000056],[3.195842589000051,39.954761606000034]]],[[[4.299355074000061,39.83958534000004],[4.252128553000034,39.814806084000054],[4.011191982000071,39.92184936700005],[3.841281810000055,39.92516393300008],[3.789640822000024,40.01671294500005],[3.852996519000044,40.05395228000003],[4.154432515000053,40.06066770600006],[4.266988285000025,39.97782777300006],[4.299355074000061,39.83958534000004]]]]}},{"type":"Feature","id":"ES61","properties":{"NUTS_ID":"ES61","NAME_LATN":"Andalucía","CNTR_CODE":"ES"},"geometry":{"type":"MultiPolygon","coordinates":[[[[-4.44256487499996,38.40087543000004],[-4.268894880999937,38.34721307900003],[-4.250257790999967,38.39671787200007],[-3.889101625999956,38.37261706800007],[-3.778279478999934,38.42354074000008],[-3.610109267999974,38.40064640700007],[-3.568812538999964,38.44291512800004],[-3.462020465999956,38.40842640300008],[-3.327617663999945,38.47300048900007],[-3.157402778999938,38.445816129000036],[-3.067031258999975,38.46238078300007],[-3.006177509999929,38.43679433900007],[-2.987744741999961,38.44123141600005],[-2.865556071999947,38.470644281000034],[-2.762069113999928,38.53277962800007],[-2.589621292999936,38.50234939300003],[-2.563038749999976,38.41627994900006],[-2.487082374999943,38.384219071000075],[-2.448701831999927,38.196653843000036],[-2.551273856999956,38.08411801700004],[-2.341195296999956,38.025868986000035],[-2.207788807999975,37.91624804600008],[-1.986985926999978,37.86595108800003],[-1.995152258999951,37.65047233100006],[-1.848353906999932,37.46322831200007],[-1.719168759999945,37.430588459000035],[-1.629967653999927,37.37515068600004],[-1.801597215999948,37.216613720000055],[-1.909781525999961,36.946205607000024],[-2.130507369999975,36.73666786900003],[-2.196307178999973,36.730969869000035],[-2.353302719999931,36.83781436900006],[-2.551996500999962,36.81637080000007],[-2.636077611999951,36.71390663200003],[-2.711831011999948,36.68376983500008],[-2.853842429999929,36.70330316800005],[-2.927598844999977,36.74538558000006],[-2.987744741999961,36.747031280000044],[-3.128676713999937,36.75088743200007],[-3.288377356999945,36.74741612500003],[-3.436806985999965,36.69603636000005],[-3.568812538999964,36.73065455400007],[-3.618064910999976,36.74357089000006],[-3.777457583999933,36.73792632300007],[-4.398267392999969,36.71628332300003],[-4.652885048999963,36.50463838300004],[-4.910923894999939,36.50124038100006],[-5.096457465999947,36.44414310900004],[-5.192730154999936,36.398915231000046],[-5.252405121999971,36.31127557600007],[-5.339031880999926,36.15336726400005],[-5.340831467999976,36.152107251000075],[-5.350471642999935,36.15254032800004],[-5.351427162999926,36.153360629000076],[-5.423017846999926,36.16979321500003],[-5.444124367999962,36.07103899400005],[-5.596131032999949,36.013480763000075],[-5.800814197999955,36.08783867300008],[-5.908248735999962,36.17729398700004],[-6.033477918999949,36.18879883500006],[-6.241698699999972,36.44047424100006],[-6.187388442999975,36.51645359500003],[-6.237147213999947,36.51886703800005],[-6.237702619999936,36.57370185100007],[-6.383324372999937,36.63365218300004],[-6.428138698999931,36.70090109000006],[-6.431018266999956,36.740171374000056],[-6.34556101499993,36.79876695000007],[-6.395821201999979,36.81626454900004],[-6.479631254999958,36.936334002000024],[-6.589448433999962,37.017871901000035],[-6.837191802999939,37.13795814800005],[-7.05514760799997,37.20668350600005],[-7.401916633999974,37.17482748000003],[-7.457101362999936,37.430588459000035],[-7.512691485999937,37.52625636400006],[-7.50484271299996,37.59480706700003],[-7.416506861999949,37.743557288000034],[-7.292076992999966,37.86136459800008],[-7.250253028999964,37.979401679000034],[-7.106695127999956,38.035458636000044],[-7.05514760799997,38.01776296300005],[-7.006274579999968,38.03451286100005],[-6.931738572999961,38.208378046000064],[-6.808944871999927,38.174995780000074],[-6.806189432999929,38.12512084300005],[-6.756385375999969,38.09950895700007],[-6.623878839999975,38.09138729500006],[-6.568229748999954,38.02649723300004],[-6.497544719999951,38.01612021100004],[-6.393172246999939,38.05163033200006],[-6.312225139999953,37.98626237900004],[-6.180307717999938,37.94107812100003],[-6.096436231999974,37.98561082300006],[-5.952994374999946,38.00419143400006],[-5.912665318999927,38.113441084000044],[-5.837928303999945,38.17148048700005],[-5.70933101299994,38.18681808000008],[-5.735531163999951,38.11431867500005],[-5.715425803999949,38.08766367000004],[-5.584845565999956,38.13175204100003],[-5.523999845999981,38.21162719400007],[-5.569317164999973,38.338704825000036],[-5.565783966999959,38.42794607500008],[-5.161734928999977,38.706685279000055],[-5.046995845999959,38.72913357700003],[-4.982160016999956,38.690784757000074],[-4.885680865999973,38.68094620100004],[-4.84681206199997,38.613415590000045],[-4.689601446999973,38.560944009000025],[-4.44256487499996,38.40087543000004]]]]}},{"type":"Feature","id":"ES62","properties":{"NUTS_ID":"ES62","NAME_LATN":"Región de Murcia","CNTR_CODE":"ES"},"geometry":{"type":"MultiPolygon","coordinates":[[[[-1.629967653999927,37.37515068600004],[-1.719168759999945,37.430588459000035],[-1.848353906999932,37.46322831200007],[-1.995152258999951,37.65047233100006],[-1.986985926999978,37.86595108800003],[-2.207788807999975,37.91624804600008],[-2.341195296999956,38.025868986000035],[-2.210159199999964,38.19973373800008],[-2.053739388999929,38.29581372600006],[-1.919614744999933,38.297066167000025],[-1.759547724999948,38.372936811000045],[-1.634778198999925,38.31118174900007],[-1.500520422999955,38.36390092100004],[-1.479879425999968,38.399745402000065],[-1.491805153999962,38.54433329200003],[-1.39353002699994,38.69197088800007],[-1.325927544999956,38.68763261400005],[-1.177708355999926,38.75118876000005],[-1.026869790999967,38.65550941400005],[-1.008583382999973,38.56444411200005],[-1.082804301999943,38.37520376400005],[-0.99493761399998,38.31843987600007],[-0.97439597999994,38.271833498000035],[-1.029568783999935,38.14068179000003],[-1.024710163999941,38.09046847600007],[-0.903814678999936,37.92957985700008],[-0.762135483999941,37.84700783900007],[-0.84182180199997,37.71583994700006],[-0.726497283999947,37.63161954900005],[-0.732563176999975,37.61016678300007],[-0.916040805999955,37.56244486800006],[-1.313792092999961,37.55784788400007],[-1.429776334999929,37.49740206100006],[-1.481636984999966,37.43725786600004],[-1.629967653999927,37.37515068600004]]]]}},{"type":"Feature","id":"ES63","properties":{"NUTS_ID":"ES63","NAME_LATN":"Ciudad de Ceuta","CNTR_CODE":"ES"},"geometry":{"type":"MultiPolygon","coordinates":[[[[-5.382030037999925,35.91260328800007],[-5.360083919999965,35.913756686000056],[-5.336119108999981,35.89177029600006],[-5.344183880999935,35.871149659000025],[-5.382030037999925,35.91260328800007]]]]}},{"type":"Feature","id":"ES64","properties":{"NUTS_ID":"ES64","NAME_LATN":"Ciudad de Melilla","CNTR_CODE":"ES"},"geometry":{"type":"MultiPolygon","coordinates":[[[[-2.952482233999945,35.31990132300007],[-2.929703441999948,35.271704476000025],[-2.949702173999981,35.26921032400003],[-2.966139046999956,35.284038450000025],[-2.952482233999945,35.31990132300007]]]]}},{"type":"Feature","id":"ES70","properties":{"NUTS_ID":"ES70","NAME_LATN":"Canarias","CNTR_CODE":"ES"},"geometry":{"type":"MultiPolygon","coordinates":[[[[-16.261669237999968,28.451089602000025],[-16.36048257799996,28.368490532000067],[-16.442049149999946,28.139277700000036],[-16.54576437099996,28.03408801200004],[-16.644970488999945,28.007955675000062],[-16.70568463099994,28.02211969600006],[-16.907635330999938,28.34064287600006],[-16.841114473999937,28.383671089000075],[-16.752235521999978,28.37479270700004],[-16.524462597999957,28.421998382000027],[-16.389838570999927,28.539579720000063],[-16.261669237999968,28.57246037300007],[-16.157723073999932,28.58077934800008],[-16.12778075199998,28.549282194000057],[-16.261669237999968,28.451089602000025]]],[[[-17.890421791999927,27.81281178100005],[-17.982075195999982,27.64437328100007],[-18.165549587999976,27.72442684200007],[-18.13665313799993,27.76125438100007],[-18.040693501999954,27.76534799700005],[-17.94645130999993,27.842255583000053],[-17.890421791999927,27.81281178100005]]],[[[-15.437474167999937,27.80852857800005],[-15.604287805999945,27.73906052800004],[-15.686454579999975,27.759204359000023],[-15.782352672999934,27.830927643000052],[-15.829736087999947,27.906541004000076],[-15.83629527599993,27.971422387000075],[-15.72671801699994,28.074126059000037],[-15.69375137399993,28.147804050000047],[-15.647710836999977,28.166328729000043],[-15.429516504999981,28.124991891000036],[-15.369605756999931,27.96940456300007],[-15.391249211999934,27.862779060000037],[-15.437474167999937,27.80852857800005]]],[[[-15.392229535999945,28.177063093000072],[-15.413922634999949,28.135657886000047],[-15.46282529499996,28.16220941800003],[-15.420301886999937,28.19146997100006],[-15.392229535999945,28.177063093000072]]],[[[-17.156679304999955,28.041760800000077],[-17.235196017999954,28.018034085000068],[-17.35744119499998,28.098066628000026],[-17.33381204799997,28.189266891000045],[-17.278213624999978,28.22020689900006],[-17.155250187999968,28.180627634000075],[-17.097098209999956,28.10543883200006],[-17.156679304999955,28.041760800000077]]],[[[-13.92320339899993,28.280716855000037],[-14.294206201999941,28.072662670000057],[-14.41752852299993,28.085511961000066],[-14.236722155999928,28.26650157800003],[-14.002681736999932,28.680007267000065],[-13.83869298999997,28.737285842000063],[-13.826198515999977,28.49535716300005],[-13.92320339899993,28.280716855000037]]],[[[-17.755632898999977,28.58241534600006],[-17.838071526999954,28.45905160600006],[-18.011722695999936,28.778514228000063],[-17.96728018899995,28.82894075100006],[-17.901889737999966,28.853678022000054],[-17.78090805599993,28.836794475000033],[-17.73506813399996,28.762323207000065],[-17.755632898999977,28.58241534600006]]],[[[-13.724679226999967,28.903580356000077],[-13.789548258999957,28.842521487000056],[-13.86948087199994,28.852343141000063],[-13.890532448999977,28.881194066000035],[-13.791688741999963,29.054961965000075],[-13.532318003999933,29.14175304200006],[-13.49889150499996,29.21554324400006],[-13.53171550299993,29.242126178000035],[-13.48425390999995,29.28208687500006],[-13.42086257799997,29.18960048300005],[-13.483156638999958,28.99716623000006],[-13.724679226999967,28.903580356000077]]],[[[-13.476397702999975,29.410947901000043],[-13.500329327999964,29.37898873300003],[-13.551953115999936,29.38144956000008],[-13.519653777999963,29.424846632000026],[-13.476397702999975,29.410947901000043]]]]}}]}
